320P/McNaught,e,4.9088,295.9292,0.7624,3.094377,0.1810691,0.68568932,302.3929,03/05.0/2020,2000,g 20.5,4.0
# From MPC105243
321P/SOHO,e,20.0445,165.0475,172.7234,2.423018,0.2613179,0.98106024,0.0000,01/17.2508/2020,2000,g 20.0,4.0
# From MPC102103
322P/SOHO,e,11.4601,351.4715,56.9341,2.508686,0.2480474,0.97977336,0.0000,08/31.5120/2019,2000,g 19.0,4.0
# From MPEC 2016-Y36
323P/SOHO,e,5.3347,324.3749,353.0450,2.582511,0.2374875,0.98482075,0.0000,01/17.7549/2021,2000,g 20.0,4.0
# From MPC108598
324P/La Sagra,e,21.4238,270.6424,58.1525,3.094561,0.1810529,0.15446131,282.3413,03/05.0/2020,2000,g 13.0,4.0
# From MPC114609
325P/Yang-Gao,e,16.7013,257.5798,343.6779,3.524281,0.1489698,0.59382245,247.6886,03/05.0/2020,2000,g 14.0,4.0
# From MPC103849
326P/Hill,e,2.4707,99.8145,278.5991,4.065040,0.1202560,0.31708230,192.0088,03/05.0/2020,2000,g 13.5,4.0
# From MPC 97499
327P/Van Ness,e,36.2367,173.9671,185.0195,3.563295,0.1465299,0.56259655,226.3957,03/05.0/2020,2000,g 16.0,4.0
# From MPC109148
328P/LONEOS-Tucker,e,17.6644,341.6128,30.4931,4.196808,0.1146372,0.55134756,175.7502,03/05.0/2020,2000,g 14.5,4.0
# From MPC101101
329P/LINEAR-Catalina,e,21.6637,87.6855,343.5747,5.193883,0.0832656,0.67680935,129.5963,03/05.0/2020,2000,g 13.5,4.0
# From MPC105243
330P/Catalina,e,15.6941,293.0962,189.0157,6.634349,0.0576775,0.54919822,74.0880,03/05.0/2020,2000,g 12.0,4.0
# From MPC110497
331P/Gibbs,e,9.7403,216.7781,183.7035,3.002887,0.1894068,0.04050350,320.5223,03/05.0/2020,2000,g 12.0,4.0
# From MPEC 2016-K18
332P/Ikeya-Murakami,e,9.3816,3.7945,152.3870,3.087644,0.1816617,0.48947840,263.4505,03/05.0/2020,2000,g 18.0,4.0
# From MPEC 2016-EI8
332P-B/Ikeya-Murakami,e,9.3805,3.8028,152.3711,3.082329,0.1821317,0.48970701,359.9699,03/17.0/2016,2000,g 19.0,4.0
# From MPEC 2016-K18
332P-C/Ikeya-Murakami,e,9.3806,3.7949,152.3783,3.087610,0.1816647,0.48948378,263.4631,03/05.0/2020,2000,g 16.5,4.0
# From MPEC 2016-ED0
332P-D/Ikeya-Murakami,e,9.3761,3.7923,152.4393,3.081138,0.1822373,0.48977814,359.9486,03/17.0/2016,2000,g 19.0,4.0
# From MPEC 2016-ED0
332P-E/Ikeya-Murakami,e,9.3774,3.8228,152.2825,3.079877,0.1823493,0.48922008,359.9889,03/17.0/2016,2000,g 21.0,4.0
# From MPEC 2016-ED0
332P-F/Ikeya-Murakami,e,9.5293,3.4757,152.8203,3.163214,0.1751908,0.49918860,359.8501,03/17.0/2016,2000,g 21.0,4.0
# From MPEC 2016-ED0
332P-G/Ikeya-Murakami,e,9.2523,3.6955,154.4000,3.050519,0.1849880,0.49200362,359.9006,03/19.0/2016,2000,g 19.0,4.0
# From MPC100285
332P-H/Ikeya-Murakami,e,9.3812,3.7947,152.3790,3.087793,0.1816485,0.48951896,263.4066,03/05.0/2020,2000,g 19.0,4.0
# From MPEC 2016-ED0
332P-I/Ikeya-Murakami,e,9.3791,3.8048,152.3297,3.081767,0.1821815,0.48955490,359.9360,03/17.0/2016,2000,g 20.5,2.0
# From MPEC 2016-EI8
332P-J/Ikeya-Murakami,e,9.4296,3.6729,152.7712,3.115165,0.1792596,0.49429435,359.8613,03/17.0/2016,2000,g 20.5,2.0
# From MPC104796
333P/LINEAR,e,131.9713,115.6206,26.0749,4.220597,0.1136693,0.73609798,162.8960,03/05.0/2020,2000,g 15.0,4.0
# From MPC111774
334P/NEAT,e,20.5501,90.7670,89.5444,6.836909,0.0551333,0.35663338,55.0620,03/05.0/2020,2000,g 10.5,4.0
# From MPC100285
335P/Gibbs,e,7.2903,330.8420,162.2425,3.579016,0.1455655,0.54499285,230.3368,03/05.0/2020,2000,g 17.0,4.0
# From MPC105244
336P/McNaught,e,17.8340,298.2295,308.6930,5.028955,0.0873952,0.44585592,98.3814,03/05.0/2020,2000,g 13.5,4.0
# From MPC112394
337P/WISE,e,15.3737,106.0721,160.9665,3.287958,0.1653159,0.49694207,219.8432,03/05.0/2020,2000,g 17.0,4.0
# From MPC104796
338P/McNaught,e,25.3642,9.7873,4.4072,3.899130,0.1280125,0.41075572,153.4873,03/05.0/2020,2000,g 12.0,4.0
# From MPC101101
339P/Gibbs,e,5.7372,172.7568,27.5204,3.694997,0.1387660,0.63611721,183.2398,03/05.0/2020,2000,g 17.0,4.0
# From MPC102957
340P/Boattini,e,2.0797,291.7283,35.7739,4.251951,0.1124143,0.28041805,135.1017,03/05.0/2020,2000,g 13.0,4.0
# From MPC109148
341P/Gibbs,e,3.7940,30.0110,312.0932,4.295370,0.1107142,0.41481848,152.5045,03/05.0/2020,2000,g 12.5,4.0
# From MPC101101
342P/SOHO,e,12.4492,39.5360,61.8133,3.042574,0.1857130,0.98334046,0.0000,10/19.2665/2021,2000,g  9.0,4.0
# From MPC109148
343P/NEAT-LONEOS,e,5.5829,257.2454,137.3914,5.463664,0.0771753,0.58350552,87.3949,03/05.0/2020,2000,g 14.0,4.0
# From MPC109148
344P/Read,e,3.4902,273.1931,140.4456,4.869180,0.0917319,0.42127775,111.9630,03/05.0/2020,2000,g 13.0,4.0
# From MPC109148
345P/LINEAR,e,2.7260,154.4971,196.3489,4.041342,0.1213153,0.22028331,161.1226,03/05.0/2020,2000,g 12.0,4.0
# From MPC110086
346P/Catalina,e,22.1856,102.4680,336.0427,4.477150,0.1040403,0.50242066,115.9624,03/05.0/2020,2000,g 14.0,4.0
# From MPC108599
347P/PANSTARRS,e,11.7476,261.0492,98.2885,3.607961,0.1438173,0.38508701,182.7049,03/05.0/2020,2000,g 15.0,4.0
# From MPC104796
348P/PANSTARRS,e,17.7188,312.9439,135.1603,3.158353,0.1755954,0.30578694,235.5615,03/05.0/2020,2000,g 14.0,4.0
# From MPC112394
349P/Lemmon,e,5.4915,331.7552,256.0289,3.571275,0.1460391,0.29967259,134.5914,03/05.0/2020,2000,g 14.0,4.0
# From MPC111775
350P/McNaught,e,7.3576,65.4255,141.5144,4.101220,0.1186683,0.09052456,95.1961,03/05.0/2020,2000,g 14.0,4.0
# From MPC105244
351P/Wiegert-PANSTARRS,e,12.7907,283.4493,352.5916,4.436553,0.1054716,0.29620908,165.4417,03/05.0/2020,2000,g 12.5,4.0
# From MPC110086
352P/Skiff,e,21.0100,28.1210,309.1031,6.633413,0.0576897,0.61797429,56.9427,03/05.0/2020,2000,g 11.5,4.0
# From MPEC 2020-AA5
353P/McNaught,e,28.4231,121.5618,230.3767,4.171730,0.1156724,0.46966636,93.1002,03/05.0/2020,2000,g 14.5,4.0
# From MPC105545
354P/LINEAR,e,5.2553,320.1311,133.0890,2.290024,0.2844095,0.12565009,344.7637,03/05.0/2020,2000,g 15.5,4.0
# From MPEC 2020-AA5
355P/LINEAR-NEAT,e,11.0339,51.4479,336.2592,3.473389,0.1522558,0.50657178,133.1302,03/05.0/2020,2000,g 15.5,2.0
# From MPC109148
356P/WISE,e,9.6329,160.7889,226.0617,4.161919,0.1160817,0.35436919,93.9278,03/05.0/2020,2000,g 14.0,4.0
# From MPC114609
357P/Hill,e,6.3089,44.5923,1.4544,4.463350,0.1045232,0.43430734,67.5468,03/05.0/2020,2000,g 15.5,4.0
# From MPC106350
358P/PANSTARRS,e,11.0570,85.7185,299.7690,3.149290,0.1763539,0.23786060,122.3297,03/05.0/2020,2000,g 18.0,4.0
# From MPC110086
359P/LONEOS,e,10.2634,149.7636,200.1176,4.639532,0.0986263,0.32368959,91.4551,03/05.0/2020,2000,g 13.5,4.0
# From MPC108599
360P/WISE,e,24.0890,2.2003,354.1118,3.703574,0.1382842,0.49833619,128.5167,03/05.0/2020,2000,g 19.5,6.0
# From MPC114609
361P/Spacewatch,e,13.8842,203.2603,219.1459,4.942430,0.0897002,0.43772418,54.8776,03/05.0/2020,2000,g 12.0,4.0
# From MPEC 2017-V13
362P/,e,15.5616,192.5988,53.6481,3.966795,0.1247511,0.28013395,160.7966,03/05.0/2020,2000,g 12.9,2.0
# From MPC114609
363P/Lemmon,e,4.0976,164.2090,321.8290,3.437473,0.1546483,0.56130782,109.2989,03/05.0/2020,2000,g 17.5,4.0
# From MPC114609
364P/PANSTARRS,e,12.1499,46.2173,211.9671,2.878522,0.2018133,0.72258028,125.0490,03/05.0/2020,2000,g 17.0,2.0
# From MPC111775
365P/PANSTARRS,e,9.8394,87.4313,66.2348,3.181084,0.1737166,0.57462020,130.8023,03/05.0/2020,2000,g 17.0,4.0
# From MPC114610
366P/Spacewatch,e,8.8596,70.7531,153.1738,3.495563,0.1508094,0.34864623,89.3894,03/05.0/2020,2000,g 15.0,4.0
# From MPC112395
367P/Catalina,e,8.4638,58.7142,172.9227,3.504957,0.1502035,0.28070510,93.5035,03/05.0/2020,2000,g 17.5,2.0
# From MPC114610
368P/NEAT,e,15.4842,257.9740,118.7844,5.526724,0.0758582,0.62600730,40.7906,03/05.0/2020,2000,g 14.0,4.0
# From MPC114610
369P/Hill,e,10.3089,47.3108,13.2377,4.387496,0.1072455,0.55410788,54.3679,03/05.0/2020,2000,g 15.0,4.0
# From MPC114610
370P/NEAT,e,19.3979,55.1501,356.7240,6.439155,0.0603199,0.61427782,38.2815,03/05.0/2020,2000,g 13.0,4.0
# From MPC114610
371P/LINEAR-Skiff,e,17.3783,67.3301,308.4600,4.181765,0.1152563,0.47621513,59.6335,03/05.0/2020,2000,g 16.0,4.0
# From MPEC 2019-TG9
372P/McNaught,e,9.5095,325.8263,27.0719,4.501327,0.1032032,0.15238013,51.7783,03/05.0/2020,2000,g 13.5,4.0
# From MPC114610
373P/Rinner,e,13.7578,231.9532,221.1804,3.806224,0.1327280,0.39225401,43.9291,03/05.0/2020,2000,g 14.5,4.0
# From MPC114610
374P/Larson,e,10.7587,7.9205,51.5651,4.976553,0.0887792,0.46227153,37.2214,03/05.0/2020,2000,g 14.0,4.0
# From MPC114610
375P/Hill,e,17.3631,359.9555,119.4574,5.560732,0.0751633,0.65904820,33.0410,03/05.0/2020,2000,g 16.0,4.0
# From MPC114610
376P/LONEOS,e,1.1929,314.8501,285.4068,5.872183,0.0692635,0.51798473,10.9344,03/05.0/2020,2000,g 12.5,4.0
# From MPC115888
377P/Scotti,e,9.0217,226.0598,354.9291,6.714626,0.0566463,0.25285731,352.7557,03/05.0/2020,2000,g  9.5,4.0
# From MPEC 2019-TG9
378P/McNaught,e,19.1100,94.5147,194.1972,6.357883,0.0614802,0.46834098,345.8151,03/05.0/2020,2000,g 12.0,4.0
# From MPC115889
379P/Spacewatch,e,12.3838,183.9938,31.2484,3.528349,0.1487122,0.33867170,32.1769,03/05.0/2020,2000,g 15.0,4.0
# From MPEC 2019-TG9
380P/PANSTARRS,e,8.2406,133.0342,90.1313,4.542717,0.1017959,0.32882758,27.6845,03/05.0/2020,2000,g 12.5,4.0
# From MPEC 2019-TG9
381P/LINEAR-Spacewatch,e,28.3764,173.7912,173.1006,7.113170,0.0519528,0.68151123,8.3177,03/05.0/2020,2000,g 17.5,2.0
# From MPC115889
382P/Larson,e,7.6603,178.1025,174.5164,6.181670,0.0641277,0.29518305,309.9416,03/05.0/2020,2000,g  8.0,4.0
# From MPC118844
383P/Christensen,e,12.3222,207.8981,133.6213,3.543166,0.1477804,0.59944236,19.3281,03/05.0/2020,2000,g 18.0,4.0
# From MPEC 2020-C98
384P/Kowalski,e,7.2811,354.2293,37.6493,2.901854,0.1993842,0.61529749,29.0280,03/05.0/2020,2000,g 19.5,4.0
# From MPEC 2020-C98
385P/Hill,e,16.8261,357.0764,44.3308,4.287581,0.1110160,0.40115853,19.1183,03/05.0/2020,2000,g 13.0,4.0
# From MPEC 2020-C98
386P/PANSTARRS,e,15.2287,134.9497,353.2717,4.058490,0.1205473,0.41648452,339.8167,03/05.0/2020,2000,g 14.5,4.0
# From MPEC 2020-C98
387P/Boattini,e,8.9170,259.3395,162.7996,4.802156,0.0936590,0.73599555,16.9361,03/05.0/2020,2000,g 15.0,4.0
# From MPEC 2020-C98
388P/Gibbs,e,23.8587,37.0538,42.4153,5.248819,0.0819618,0.61802951,18.4736,03/05.0/2020,2000,g 13.0,4.0
# From MPC118845
389P/Siding Spring,e,160.0686,218.8405,249.2988,5.629631,0.0737877,0.70454097,4.9230,03/05.0/2020,2000,g 16.0,4.0
